{
  "norad_id": 65018,
  "name": "STARLINK-34623",
  "history": [
    {
      "epoch": "2026-03-28T18:00:12.842496",
      "apogee_km": 475.90805237407494,
      "perigee_km": 474.4319871081625,
      "latitude_deg": -22.71337168716067,
      "longitude_deg": 33.81426944001578,
      "semi_major_axis_km": 6853.307019741118,
      "eccentricity": 0.00010769,
      "inclination_deg": 53.1578,
      "raan_deg": 205.9869,
      "arg_perigee_deg": 76.2706,
      "mean_anomaly_deg": 283.8414,
      "mean_motion_rev_day": 15.30215088
    }
  ]
}