{"fetched_at":"2026-03-29T16:36:15Z","count":15609,"tles":[{"name":"STARLINK-34623","line1":"1 65018U 25161D   26087.75014864  .00030373  00000+0  10329-2 0  9995","line2":"2 65018  53.1578 205.9869 0001076  76.2706 283.8414 15.30215088 38242","category":"Starlink"}]}